{
    "links": {
        "self": "http://www.neowsapp.com/rest/v1/neo/54075296?api_key=iIulBulltgU6a56xZRHN4H3l9WmuAYTsLGpBGhQ2"
    },
    "id": "54075296",
    "neo_reference_id": "54075296",
    "name": "(2020 TA8)",
    "designation": "2020 TA8",
    "nasa_jpl_url": "http://ssd.jpl.nasa.gov/sbdb.cgi?sstr=54075296",
    "absolute_magnitude_h": 24.29,
    "estimated_diameter": {
        "kilometers": {
            "estimated_diameter_min": 0.0368599699,
            "estimated_diameter_max": 0.0824213984
        },
        "meters": {
            "estimated_diameter_min": 36.8599699314,
            "estimated_diameter_max": 82.4213984152
        },
        "miles": {
            "estimated_diameter_min": 0.0229037164,
            "estimated_diameter_max": 0.0512142668
        },
        "feet": {
            "estimated_diameter_min": 120.9316637498,
            "estimated_diameter_max": 270.4114207767
        }
    },
    "is_potentially_hazardous_asteroid": false,
    "close_approach_data": [
        {
            "close_approach_date": "2020-10-06",
            "close_approach_date_full": "2020-Oct-06 07:53",
            "epoch_date_close_approach": 1601970780000,
            "relative_velocity": {
                "kilometers_per_second": "16.8437618871",
                "kilometers_per_hour": "60637.5427937252",
                "miles_per_hour": "37677.8109653567"
            },
            "miss_distance": {
                "astronomical": "0.0643234517",
                "lunar": "25.0218227113",
                "kilometers": "9622651.365367879",
                "miles": "5979238.2974755702"
            },
            "orbiting_body": "Earth"
        }
    ],
    "orbital_data": {
        "orbit_id": "2",
        "orbit_determination_date": "2020-10-22 09:08:38",
        "first_observation_date": "2020-10-15",
        "last_observation_date": "2020-10-21",
        "data_arc_in_days": 6,
        "observations_used": 15,
        "orbit_uncertainty": "9",
        "minimum_orbit_intersection": ".0572935",
        "jupiter_tisserand_invariant": "3.573",
        "epoch_osculation": "2459138.5",
        "eccentricity": ".6372536456073017",
        "semi_major_axis": "1.983473473603408",
        "inclination": "3.538499275465556",
        "ascending_node_longitude": "113.5188886622925",
        "orbital_period": "1020.323811415561",
        "perihelion_distance": ".7194977715842581",
        "perihelion_argument": "187.8931253674597",
        "aphelion_distance": "3.247449175622557",
        "perihelion_time": "2459084.260399844474",
        "mean_anomaly": "19.13731291725843",
        "mean_motion": ".3528291665569864",
        "equinox": "J2000",
        "orbit_class": {
            "orbit_class_type": "APO",
            "orbit_class_description": "Near-Earth asteroid orbits which cross the Earth’s orbit similar to that of 1862 Apollo",
            "orbit_class_range": "a (semi-major axis) > 1.0 AU; q (perihelion) < 1.017 AU"
        }
    },
    "is_sentry_object": false
}